X,Y,id,initialdate,finaldate,area_ha,iso2,iso3,country,admlvl1,admlvl2,admlvl3,admlvl5,map_source,broadleaved_forest_percent,coniferous_forest_percent,mixed_forest_percent,sclerophillous_vegetation_percent,transitional_vegetation_percent,other_natural_percent,agriculture_percent,artificial_percent,other_percent,natura2k_percent,noneu,updated,area_code,eu_area
,,"7226",2013/05/03 00:00:00,2013/05/03 00:00:00+00,"133",DE,DEU,Deutschland,Niedersachsen,Lüneburg,Celle,"Lohheide, gemfr. Bezirk",modis,0,0,3.81679389312686,0,0,96.1832061067968,0,0,0,100,"0",2022/01/26 11:57:54.973,EU,EU
,,"238",2015/06/11 00:00:00,2015/06/11 00:00:00+00,"62",DE,DEU,Deutschland,Sachsen-Anhalt,Sachsen-Anhalt,Altmarkkreis Salzwedel,"Gardelegen, Hansestadt",modis,0,0,0,0,0,99.9999999998361,0,0,0,100,"0",2022/01/26 11:57:54.973,EU,EU
,,"9293",2015/07/05 00:00:00,2015/07/07 00:00:00+00,"43",DE,DEU,Deutschland,Brandenburg,Brandenburg,Teltow-Fläming,"Jüterbog, Stadt",modis,0,8.88888888886914,0,0,0,91.1111111109086,0,0,0,100,"0",2022/01/26 11:57:54.973,EU,EU
,,"719",2016/08/17 00:00:00,2016/08/19 00:00:00+00,"131",DE,DEU,Deutschland,Sachsen-Anhalt,Sachsen-Anhalt,Jerichower Land,"Möckern, Stadt",modis,0,0,0,0,0,99.9999999999231,0,0,0,100,"0",2022/01/26 11:57:54.973,EU,EU
,,"8311",2016/09/22 00:00:00,2016/09/23 00:00:00+00,"77",DE,DEU,Deutschland,Brandenburg,Brandenburg,Ostprignitz-Ruppin,"Wittstock/Dosse, Stadt",modis,0,0,0,0,9.9999999999875,89.9999999998875,0,0,0,100,"0",2022/01/26 11:57:54.973,EU,EU
,,"687",2016/04/21 00:00:00,2016/04/21 00:00:00+00,"106",DE,DEU,Deutschland,Sachsen-Anhalt,Sachsen-Anhalt,Jerichower Land,"Möckern, Stadt",modis,0,1.83486238531942,0,0,0,98.1651376145888,0,0,0,100,"0",2022/01/26 11:57:54.973,EU,EU
,,"10244",2017/03/27 00:00:00,2017/03/27 00:00:00+00,"57",DE,DEU,Deutschland,Brandenburg,Brandenburg,Ostprignitz-Ruppin,"Wittstock/Dosse, Stadt",modis,0,1.69491525423442,0,0,18.6440677965786,79.6610169490175,0,0,0,100,"0",2022/01/26 11:57:54.973,EU,EU
,,"13988",2018/04/19 00:00:00,2018/04/19 00:00:00+00,"31",DE,DEU,Deutschland,Niedersachsen,Lüneburg,Heidekreis,Wietzendorf,modis,0,0,0,0,0,99.9999999996552,0,0,0,100,"0",2022/01/26 12:15:03.089,EU,EU
,,"14023",2018/02/23 00:00:00,2018/02/23 00:00:00+00,"38",DE,DEU,Deutschland,Bayern,Oberpfalz,Neustadt a. d. Waldnaab,"Grafenwöhr, St",modis,0,0,11.1111111110802,0,0,88.888888888642,0,0,0,100,"0",2022/01/26 12:15:03.089,EU,EU
,,"14167",2018/07/03 00:00:00,2018/07/04 00:00:00+00,"43",DE,DEU,Deutschland,Sachsen-Anhalt,Sachsen-Anhalt,Wittenberg,"Coswig (Anhalt), Stadt",modis,0,93.3333333331259,0,0,0,0,6.66666666665185,0,0,0,"0",2022/01/26 12:15:03.089,EU,EU
,,"14180",2018/03/19 00:00:00,2018/03/19 00:00:00+00,"32",DE,DEU,Deutschland,Niedersachsen,Lüneburg,Celle,"Lohheide, gemfr. Bezirk",modis,6.24999999998047,0,3.12499999999023,0,0,90.6249999997168,0,0,0,99.9999999999999,"0",2022/01/26 12:15:03.089,EU,EU
,,"14189",2018/03/19 00:00:00,2018/03/19 00:00:00+00,"44",DE,DEU,Deutschland,Niedersachsen,Lüneburg,Celle,"Lohheide, gemfr. Bezirk",modis,0,8.69565217389414,0,0,0,91.3043478258885,0,0,0,89.2331465253515,"0",2022/01/26 12:15:03.089,EU,EU
,,"14265",2018/07/25 00:00:00,2018/07/28 00:00:00+00,"245",DE,DEU,Deutschland,Brandenburg,Brandenburg,Teltow-Fläming,"Jüterbog, Stadt",modis,2.89256198346988,42.9752066115525,1.23966942148709,0,0,52.8925619834492,0,0,0,100,"0",2022/01/26 12:15:03.089,EU,EU
,,"14276",2018/03/01 00:00:00,2018/03/01 00:00:00+00,"31",DE,DEU,Deutschland,Niedersachsen,Lüneburg,Heidekreis,Wietzendorf,modis,0,0,0,0,0,99.9999999996875,0,0,0,100,"0",2022/01/26 12:15:03.089,EU,EU
,,"14392",2018/06/28 00:00:00,2018/06/28 00:00:00+00,"49",DE,DEU,Deutschland,Sachsen-Anhalt,Sachsen-Anhalt,Stendal,Schollene,modis,0,0,0,0,0,99.9999999997872,0,0,0,99.9999999999999,"0",2022/01/26 12:15:03.089,EU,EU
,,"14420",2018/08/07 00:00:00,2018/08/07 00:00:00+00,"97",DE,DEU,Deutschland,Brandenburg,Brandenburg,Potsdam-Mittelmark,Görzke,modis,0,0,0,0,0,99.999999999899,0,0,0,27.7732085732166,"0",2022/01/26 12:15:03.089,EU,EU
,,"14433",2018/08/24 00:00:00,2018/08/24 00:00:00+00,"224",DE,DEU,Deutschland,Brandenburg,Brandenburg,Potsdam-Mittelmark,"Treuenbrietzen, Stadt",modis,0,99.9999999999544,0,0,0,0,0,0,0,0,"0",2022/01/26 12:15:03.089,EU,EU
,,"14443",2018/09/18 00:00:00,2018/09/20 00:00:00+00,"1057",DE,DEU,Deutschland,Niedersachsen,Weser-Ems,Emsland,Stavern,modis,0,0.659133709981106,0,0,0,97.6459510357724,1.69491525423713,0,0,99.4868562736056,"0",2022/01/26 12:15:03.089,EU,EU
,,"14464",2018/05/28 00:00:00,2018/05/28 00:00:00+00,"31",DE,DEU,Deutschland,Sachsen,Dresden,Görlitz,Krauschwitz,modis,0,12.4999999999609,0,0,0,87.4999999997266,0,0,0,99.9999999999999,"0",2022/01/26 12:15:03.089,EU,EU
,,"14508",2018/02/26 00:00:00,2018/02/27 00:00:00+00,"363",DE,DEU,Deutschland,Niedersachsen,Weser-Ems,Emsland,Stavern,modis,0,0,0,0,1.36986301369825,98.6301369862744,0,0,0,100,"0",2022/01/26 12:15:03.089,EU,EU
,,"14571",2018/08/29 00:00:00,2018/08/29 00:00:00+00,"34",DE,DEU,Deutschland,Sachsen-Anhalt,Sachsen-Anhalt,Stendal,"Stendal, Hansestadt",modis,3.03030303029385,0,0,0,0,96.9696969694031,0,0,0,99.9999999999999,"0",2022/01/26 12:15:03.089,EU,EU
,,"14590",2018/03/19 00:00:00,2018/03/19 00:00:00+00,"70",DE,DEU,Deutschland,Brandenburg,Brandenburg,Ostprignitz-Ruppin,"Wittstock/Dosse, Stadt",modis,0,0,0,0,5.71428571427755,94.2857142855796,0,0,0,100,"0",2022/01/26 12:15:03.089,EU,EU
,,"14641",2018/06/27 00:00:00,2018/06/27 00:00:00+00,"35",DE,DEU,Deutschland,Niedersachsen,Lüneburg,Heidekreis,"Munster, Stadt",modis,0,2.77777777777006,0,0,0,97.2222222219522,0,0,0,83.7681912662097,"0",2022/01/26 12:15:03.089,EU,EU
,,"14707",2018/08/23 00:00:00,2018/08/23 00:00:00+00,"74",DE,DEU,Deutschland,Bayern,Oberpfalz,Neustadt a. d. Waldnaab,"Grafenwöhr, St",modis,0,0,0,0,0,99.9999999998684,0,0,0,100,"0",2022/01/26 12:15:03.089,EU,EU
,,"14720",2018/06/27 00:00:00,2018/06/28 00:00:00+00,"305",DE,DEU,Deutschland,Sachsen-Anhalt,Sachsen-Anhalt,Stendal,"Tangerhütte, Stadt",modis,0,0,1.96721311475345,0,0,98.0327868852138,0,0,0,99.9999999999999,"0",2022/01/26 12:15:03.089,EU,EU
,,"14737",2018/08/24 00:00:00,2018/08/24 00:00:00+00,"27",DE,DEU,Deutschland,Brandenburg,Brandenburg,Potsdam-Mittelmark,"Treuenbrietzen, Stadt",modis,0,96.5517241375981,0,0,3.44827586205707,0,0,0,0,1.58775028569686,"0",2022/01/26 12:15:03.089,EU,EU
,,"14785",2018/05/07 00:00:00,2018/05/07 00:00:00+00,"50",DE,DEU,Deutschland,Sachsen-Anhalt,Sachsen-Anhalt,Stendal,Schönhausen (Elbe),modis,0,0,0,0,0,99.9999999998,0,0,0,92.9760406602933,"0",2022/01/26 12:15:03.089,EU,EU
,,"14807",2018/07/26 00:00:00,2018/07/27 00:00:00+00,"33",DE,DEU,Deutschland,Brandenburg,Brandenburg,Potsdam-Mittelmark,Schwielowsee,modis,0,99.9999999996774,0,0,0,0,0,0,0,0,"0",2022/01/26 12:15:03.089,EU,EU
,,"14812",2018/09/06 00:00:00,2018/09/06 00:00:00+00,"94",DE,DEU,Deutschland,Sachsen,Dresden,Bautzen,"Königsbrück, Stadt",modis,0,0,11.702127659562,0,28.7234042552886,59.574468085043,0,0,0,100,"0",2022/01/26 12:15:03.089,EU,EU
,,"14841",2018/07/10 00:00:00,2018/07/10 00:00:00+00,"22",DE,DEU,Deutschland,Sachsen-Anhalt,Sachsen-Anhalt,Jerichower Land,"Möckern, Stadt",modis,0,0,0,0,0,99.9999999995238,0,0,0,99.9999999999999,"0",2022/01/26 12:15:03.089,EU,EU
,,"14959",2018/08/24 00:00:00,2018/08/24 00:00:00+00,"70",DE,DEU,Deutschland,Brandenburg,Brandenburg,Teltow-Fläming,"Jüterbog, Stadt",modis,43.0555555554958,56.9444444443654,0,0,0,0,0,0,0,100,"0",2022/01/26 12:15:03.089,EU,EU
,,"14981",2018/04/12 00:00:00,2018/04/12 00:00:00+00,"49",DE,DEU,Deutschland,Sachsen-Anhalt,Sachsen-Anhalt,Börde,"Tangerhütte, Stadt",modis,0,0,0,0,0,99.9999999997917,0,0,0,100,"0",2022/01/26 12:15:03.089,EU,EU
,,"14984",2018/05/25 00:00:00,2018/05/25 00:00:00+00,"37",DE,DEU,Deutschland,Sachsen-Anhalt,Sachsen-Anhalt,Jerichower Land,"Möckern, Stadt",modis,0,0,0,0,0,99.9999999997297,0,0,0,100,"0",2022/01/26 12:15:03.089,EU,EU
,,"15036",2018/08/22 00:00:00,2018/08/29 00:00:00+00,"60",DE,DEU,Deutschland,Niedersachsen,Lüneburg,Heidekreis,"Osterheide, gemfr. Bezirk",modis,0,0,0,0,0,99.9999999998361,0,0,0,100,"0",2022/01/26 12:15:03.089,EU,EU
,,"15086",2018/06/28 00:00:00,2018/06/28 00:00:00+00,"38",DE,DEU,Deutschland,Sachsen-Anhalt,Sachsen-Anhalt,Stendal,Schollene,modis,0,0,0,0,0,99.99999999975,0,0,0,52.2941932458966,"0",2022/01/26 12:15:03.089,EU,EU
,,"15139",2018/09/05 00:00:00,2018/09/05 00:00:00+00,"28",DE,DEU,Deutschland,Niedersachsen,Lüneburg,Heidekreis,"Osterheide, gemfr. Bezirk",modis,0,0,0,0,0,99.9999999996429,0,0,0,100,"0",2022/01/26 12:15:03.089,EU,EU
,,"15181",2018/07/19 00:00:00,2018/07/19 00:00:00+00,"33",DE,DEU,Deutschland,Mecklenburg-Vorpommern,Mecklenburg-Vorpommern,Landkreis Rostock,Cammin,modis,12.4999999999609,28.1249999999121,0,0,0,0,59.3749999998144,0,0,53.7320055075647,"0",2022/01/26 12:15:03.089,EU,EU
,,"15188",2018/02/09 00:00:00,2018/02/09 00:00:00+00,"32",DE,DEU,Deutschland,Niedersachsen,Lüneburg,Uelzen,Eimke,modis,0,38.2352941175346,0,0,0,61.7647058821713,0,0,0,88.2103106630984,"0",2022/01/26 12:15:03.089,EU,EU
,,"15245",2018/08/21 00:00:00,2018/08/21 00:00:00+00,"30",DE,DEU,Deutschland,Rheinland-Pfalz,Koblenz,Birkenfeld,"Baumholder, Stadt",modis,3.33333333332222,0,0,0,23.3333333332556,73.3333333330889,0,0,0,100,"0",2022/01/26 12:15:03.089,EU,EU
,,"15296",2018/07/05 00:00:00,2018/07/05 00:00:00+00,"32",DE,DEU,Deutschland,Mecklenburg-Vorpommern,Mecklenburg-Vorpommern,Ludwigslust-Parchim,Groß Laasch,modis,0,44.1176470586938,0,0,0,0,55.8823529410121,0,0,0,"0",2022/01/26 12:15:03.089,EU,EU
,,"15337",2018/05/15 00:00:00,2018/05/15 00:00:00+00,"54",DE,DEU,Deutschland,Niedersachsen,Lüneburg,Heidekreis,"Osterheide, gemfr. Bezirk",modis,0,42.3076923076109,0,0,0,57.6923076921967,0,0,0,100,"0",2022/01/26 12:15:03.089,EU,EU
,,"15355",2018/07/05 00:00:00,2018/07/06 00:00:00+00,"133",DE,DEU,Deutschland,Brandenburg,Brandenburg,Spree-Neiße,Drachhausen,modis,0,45.8646616541009,0,0,0,54.135338345824,0,0,0,72.0460384576113,"0",2022/01/26 12:15:03.089,EU,EU
,,"15410",2018/02/27 00:00:00,2018/02/27 00:00:00+00,"74",DE,DEU,Deutschland,Niedersachsen,Weser-Ems,Emsland,"Haren (Ems), Stadt",modis,0,0,0,0,0,99.9999999998649,0,0,0,99.9999999999999,"0",2022/01/26 12:15:03.089,EU,EU
,,"15480",2019/06/19 00:00:00,2019/06/19 00:00:00+00,"21",DE,DEU,Deutschland,Sachsen-Anhalt,Sachsen-Anhalt,Jerichower Land,"Möckern, Stadt",modis/sentinel,0,0,0,0,99.9999999994737,0,0,0,0,100,"0",2022/03/02 11:51:40.501,EU,EU
,,"16009",2019/06/03 00:00:00,2019/06/06 00:00:00+00,"590",DE,DEU,Deutschland,Brandenburg,Brandenburg,Teltow-Fläming,"Jüterbog, Stadt",modis/sentinel,6.04026845637482,44.1275167785161,0.503355704697902,0,24.4966442952979,24.8322147650965,0,0,0,99.6174795805331,"0",2022/03/02 11:51:40.501,EU,EU
,,"16623",2019/04/22 00:00:00,2019/04/22 00:00:00+00,"32",DE,DEU,Deutschland,Niedersachsen,Weser-Ems,Vechta,"Vechta, Stadt",modis/sentinel,12.90322580641,0,0,0,74.1935483868574,0,12.90322580641,0,0,18.2194278088377,"0",2022/03/02 11:51:40.501,EU,EU
,,"16636",2019/02/27 00:00:00,2019/02/27 00:00:00+00,"153",DE,DEU,Deutschland,Brandenburg,Brandenburg,Ostprignitz-Ruppin,"Wittstock/Dosse, Stadt",modis/sentinel,0,0,0,0,86.3636363635803,13.6363636363548,0,0,0,99.9999999999999,"0",2022/03/02 11:51:40.501,EU,EU
,,"16750",2019/06/03 00:00:00,2019/06/04 00:00:00+00,"37",DE,DEU,Deutschland,Brandenburg,Brandenburg,Teltow-Fläming,Nuthe-Urstromtal,modis/sentinel,0,99.9999999997368,0,0,0,0,0,0,0,0,"0",2022/03/02 11:51:40.501,EU,EU
,,"16770",2019/07/23 00:00:00,2019/07/23 00:00:00+00,"71",DE,DEU,Deutschland,Bayern,Unterfranken,Bad Kissingen,"Hammelburg, St",modis/sentinel,0,0,0,0,99.9999999998592,0,0,0,0,100,"0",2022/03/02 11:51:40.501,EU,EU
,,"17010",2019/05/23 00:00:00,2019/05/24 00:00:00+00,"76",DE,DEU,Deutschland,Sachsen-Anhalt,Sachsen-Anhalt,Jerichower Land,"Möckern, Stadt",modis/sentinel,0,0,0,0,99.9999999998684,0,0,0,0,100,"0",2022/03/02 11:51:40.501,EU,EU
,,"17541",2019/07/26 00:00:00,2019/07/26 00:00:00+00,"68",DE,DEU,Deutschland,Brandenburg,Brandenburg,Teltow-Fläming,"Jüterbog, Stadt",modis/sentinel,40.5797101448687,0,0,0,59.4202898549863,0,0,0,0,99.9999999999999,"0",2022/03/02 11:51:40.501,EU,EU
,,"17645",2019/07/26 00:00:00,2019/07/26 00:00:00+00,"28",DE,DEU,Deutschland,Brandenburg,Brandenburg,Prignitz,Marienfließ,modis/sentinel,0,0,0,0,0,0,0,99.9999999996552,0,0,"0",2022/03/02 11:51:40.501,EU,EU
,,"17779",2019/04/09 00:00:00,2019/04/09 00:00:00+00,"49",DE,DEU,Deutschland,Niedersachsen,Lüneburg,Heidekreis,Wietzendorf,modis/sentinel,0,0,0,0,99.9999999997917,0,0,0,0,100,"0",2022/03/02 11:51:40.501,EU,EU
,,"18317",2019/08/22 00:00:00,2019/08/22 00:00:00+00,"31",DE,DEU,Deutschland,Brandenburg,Brandenburg,Prignitz,Marienfließ,modis/sentinel,0,0,0,0,0,0,0,99.9999999996774,0,0,"0",2022/03/02 11:51:40.501,EU,EU
,,"18632",2019/06/30 00:00:00,2019/07/03 00:00:00+00,"715",DE,DEU,Deutschland,Mecklenburg-Vorpommern,Mecklenburg-Vorpommern,Ludwigslust-Parchim,Vielank,modis/sentinel,0,97.4999999999865,0,0,2.49999999999965,0,0,0,0,99.6460858943427,"0",2022/03/02 11:51:40.501,EU,EU
,,"18734",2019/06/27 00:00:00,2019/06/27 00:00:00+00,"52",DE,DEU,Deutschland,Brandenburg,Brandenburg,Oder-Spree,Wiesenau,modis/sentinel,0,93.999999999812,0,0,0,0,0,5.999999999988,0,0,"0",2022/03/02 11:51:40.501,EU,EU
,,"18772",2019/06/24 00:00:00,2019/06/27 00:00:00+00,"132",DE,DEU,Deutschland,Brandenburg,Brandenburg,Dahme-Spreewald,Byhleguhre-Byhlen,modis/sentinel,0,99.9999999999231,0,0,0,0,0,0,0,99.9999999999999,"0",2022/03/02 11:51:40.501,EU,EU
,,"24726",2020/03/17 00:00:00,2020/03/17 00:00:00+00,"26",DE,DEU,Deutschland,Brandenburg,Brandenburg,Ostprignitz-Ruppin,"Wittstock/Dosse, Stadt",sentinel,0,0,0,0,0,99.9999999996296,0,0,0,100,"0",2022/01/26 11:45:36.105,EU,EU
,,"41836",2020/08/05 11:48:00,2020/08/05 11:48:00+00,"26",DE,DEU,Deutschland,Brandenburg,Brandenburg,Prignitz,Marienfließ,sentinel,0,0,0,0,0,0,0,99.9999999996296,0,0,"0",2022/01/26 11:45:36.105,EU,EU
,,"44546",2020/09/22 11:00:00,2020/09/23 13:12:00+00,"4",DE,DEU,Deutschland,Niedersachsen,Lüneburg,Heidekreis,Wietzendorf,sentinel,0,0,0,0,0,99.999999995,0,0,0,100,"0",2022/01/26 11:45:36.105,EU,EU
,,"19547",2020/01/24 00:00:00,2020/01/25 00:00:00+00,"57",DE,DEU,Deutschland,Brandenburg,Brandenburg,Oder-Spree,Mixdorf,sentinel,0,5.26315789472761,0,0,0,0,0,94.736842105097,0,0,"0",2022/01/26 11:45:36.105,EU,EU
,,"41943",2020/07/31 10:00:00,2020/07/31 10:00:00+00,"19",DE,DEU,Deutschland,Brandenburg,Brandenburg,Potsdam-Mittelmark,Planebruch,sentinel,0,16.6666666665741,0,0,0,83.3333333328704,0,0,0,83.9337912780036,"0",2022/01/26 11:45:36.105,EU,EU
,,"24722",2020/04/18 00:00:00,2020/04/19 00:00:00+00,"60",DE,DEU,Deutschland,Niedersachsen,Weser-Ems,Emsland,"Papenburg, Stadt",sentinel,10.3448275861891,0,0,0,0,89.6551724136385,0,0,0,100,"0",2022/01/26 11:45:36.105,EU,EU
,,"24646",2020/04/20 00:00:00,2020/04/21 00:00:00+00,"31",DE,DEU,Deutschland,Niedersachsen,Weser-Ems,Vechta,"Lohne (Oldenburg), Stadt",sentinel,0,0,0,0,0,93.5483870964724,6.451612903205,0,0,0,"0",2022/01/26 11:45:36.105,EU,EU
,,"25140",2020/04/20 00:00:00,2020/04/20 00:00:00+00,"25",DE,DEU,Deutschland,Nordrhein-Westfalen,Köln,Oberbergischer Kreis,"Gummersbach, Stadt",sentinel,0,91.999999999632,7.999999999968,0,0,0,0,0,0,0,"0",2022/01/26 11:45:36.105,EU,EU
,,"26190",2020/05/29 10:30:00,2020/05/29 12:12:00+00,"46",DE,DEU,Deutschland,Brandenburg,Brandenburg,Elbe-Elster,Plessa,sentinel,69.5652173911531,0,13.0434782608412,0,0,17.3913043477883,0,0,0,38.6927444852497,"0",2022/01/26 11:45:36.105,EU,EU
,,"41671",2020/08/06 12:45:00,2020/08/06 13:06:00+00,"11",DE,DEU,Deutschland,Rheinland-Pfalz,Koblenz,Birkenfeld,"Baumholder, Stadt",sentinel,0,0,0,0,99.9999999991667,0,0,0,0,100,"0",2022/01/26 11:45:36.105,EU,EU
,,"41834",2020/08/04 12:06:00,2020/08/06 11:30:00+00,"7",DE,DEU,Deutschland,Niedersachsen,Lüneburg,Heidekreis,"Munster, Stadt",sentinel,0,0,0,0,0,99.9999999985714,0,0,0,100,"0",2022/01/26 11:45:36.105,EU,EU
,,"41835",2020/07/30 12:48:00,2020/07/30 12:48:00+00,"6",DE,DEU,Deutschland,Niedersachsen,Lüneburg,Heidekreis,Wietzendorf,sentinel,0,0,0,0,0,99.9999999985714,0,0,0,100,"0",2022/01/26 11:45:36.105,EU,EU
,,"41837",2020/08/08 11:42:00,2020/08/09 01:36:00+00,"21",DE,DEU,Deutschland,Sachsen,Leipzig,Nordsachsen,Beilrode,sentinel,0,99.9999999995455,0,0,0,0,0,0,0,0,"0",2022/01/26 11:45:36.105,EU,EU
,,"43935",2020/09/02 10:45:00,2020/09/02 10:45:00+00,"44",DE,DEU,Deutschland,Rheinland-Pfalz,Rheinhessen-Pfalz,Kusel,Homberg,sentinel,6.52173913042061,0,0,0,0,93.478260869362,0,0,0,100,"0",2022/01/26 11:45:36.105,EU,EU
,,"43936",2020/09/08 11:50:00,2020/09/08 12:48:00+00,"76",DE,DEU,Deutschland,Rheinland-Pfalz,Koblenz,Birkenfeld,"Baumholder, Stadt",sentinel,1.31578947368248,0,0,0,19.7368421052372,78.9473684209487,0,0,0,100,"0",2022/01/26 11:45:36.105,EU,EU
,,"44339",2020/09/02 09:43:37.844,2020/09/02 09:43:41.452+00,"22",DE,DEU,Deutschland,Niedersachsen,Lüneburg,Heidekreis,Wietzendorf,sentinel,0,0,0,0,0,99.9999999995455,0,0,0,100,"0",2022/01/26 11:45:36.105,EU,EU
,,"44340",2020/09/02 13:06:00,2020/09/02 13:06:00+00,"26",DE,DEU,Deutschland,Niedersachsen,Lüneburg,Heidekreis,"Munster, Stadt",sentinel,0,0,0,0,0,99.9999999995652,0,0,0,100,"0",2022/01/26 11:45:36.105,EU,EU
,,"44545",2020/09/22 11:00:00,2020/09/23 13:12:00+00,"15",DE,DEU,Deutschland,Niedersachsen,Lüneburg,Heidekreis,Wietzendorf,sentinel,0,0,0,0,0,99.9999999993333,0,0,0,100,"0",2022/01/26 11:45:36.105,EU,EU
,,"49190",2021/04/28 12:48:00,2021/04/28 12:48:00+00,"3",DE,DEU,Deutschland,Niedersachsen,Lüneburg,Heidekreis,"Munster, Stadt",sentinel,0,0,0,0,0,99.9999999975,0,0,0,100,"0",2022/01/26 11:45:36.105,EU,EU
,,"49581",2021/06/07 10:05:00,2021/06/07 11:13:00+00,"2",DE,DEU,Deutschland,Brandenburg,Brandenburg,Teltow-Fläming,"Baruth/Mark, Stadt",sentinel,0,99.999999995,0,0,0,0,0,0,0,0,"0",2022/01/26 11:45:36.105,EU,EU
,,"54746",2021/09/02 11:32:00,2021/09/02 11:32:00+00,"5",DE,DEU,Deutschland,Sachsen-Anhalt,Sachsen-Anhalt,Altmarkkreis Salzwedel,"Gardelegen, Hansestadt",sentinel,0,0,0,0,0,99.999999998,0,0,0,100,"0",2022/01/26 11:45:36.105,EU,EU
,,"46142",2021/02/25 12:30:00,2021/02/25 12:30:00+00,"31",DE,DEU,Deutschland,Mecklenburg-Vorpommern,Mecklenburg-Vorpommern,Vorpommern-Greifswald,"Eggesin, Stadt",sentinel,0,0,0,0,0,90.9090909088154,9.09090909088154,0,0,100,"0",2022/01/26 11:45:36.105,EU,EU
,,"46599",2021/02/25 11:24:00,2021/02/25 13:06:00+00,"24",DE,DEU,Deutschland,Niedersachsen,Lüneburg,Heidekreis,"Munster, Stadt",sentinel,0,0,0,0,0,99.9999999995833,0,0,0,100,"0",2022/01/26 11:45:36.105,EU,EU
,,"46600",2021/03/03 12:48:00,2021/03/03 12:48:00+00,"11",DE,DEU,Deutschland,Niedersachsen,Lüneburg,Heidekreis,"Osterheide, gemfr. Bezirk",sentinel,0,0,99.9999999990909,0,0,0,0,0,0,100,"0",2022/01/26 11:45:36.105,EU,EU
,,"46601",2021/03/02 13:06:00,2021/03/02 13:06:00+00,"14",DE,DEU,Deutschland,Bayern,Oberpfalz,Neustadt a. d. Waldnaab,"Grafenwöhr, St",sentinel,0,0,0,0,0,99.9999999992308,0,0,0,100,"0",2022/01/26 11:45:36.105,EU,EU
,,"46598",2021/02/23 10:55:00,2021/02/23 12:48:00+00,"57",DE,DEU,Deutschland,Niedersachsen,Lüneburg,Celle,"Lohheide, gemfr. Bezirk",sentinel,0,0,0,0,0,99.9999999998246,0,0,0,100,"0",2022/01/26 11:45:36.105,EU,EU
,,"46602",2021/03/02 12:18:00,2021/03/02 13:06:00+00,"29",DE,DEU,Deutschland,Bayern,Oberpfalz,Neustadt a. d. Waldnaab,"Grafenwöhr, St",sentinel,0,0,0,0,0,99.9999999996552,0,0,0,100,"0",2022/01/26 11:45:36.105,EU,EU
,,"49300",2021/05/10 11:25:00,2021/05/10 11:36:00+00,"2",DE,DEU,Deutschland,Sachsen-Anhalt,Sachsen-Anhalt,Börde,Burgstall,sentinel,0,0,0,0,0,99.999999995,0,0,0,100,"0",2022/01/26 11:45:36.105,EU,EU
,,"49301",2021/05/10 11:25:00,2021/05/10 11:36:00+00,"1",DE,DEU,Deutschland,Sachsen-Anhalt,Sachsen-Anhalt,Börde,Burgstall,sentinel,0,0,0,0,0,99.99999999,0,0,0,100,"0",2022/01/26 11:45:36.105,EU,EU
,,"49188",2021/04/28 11:12:00,2021/04/28 12:00:00+00,"3",DE,DEU,Deutschland,Niedersachsen,Lüneburg,Celle,"Osterheide, gemfr. Bezirk",sentinel,0,0,0,0,0,99.999999995,0,0,0,100,"0",2022/01/26 11:45:36.105,EU,EU
,,"49189",2021/04/28 12:00:00,2021/04/28 12:00:00+00,"5",DE,DEU,Deutschland,Niedersachsen,Lüneburg,Heidekreis,"Soltau, Stadt",sentinel,0,0,0,0,0,99.999999998,0,0,0,100,"0",2022/01/26 11:45:36.105,EU,EU
,,"49191",2021/04/28 11:55:35.567,2021/04/28 11:55:39.392+00,"12",DE,DEU,Deutschland,Niedersachsen,Lüneburg,Heidekreis,Wietzendorf,sentinel,0,0,0,0,0,99.9999999990909,0,0,0,100,"0",2022/01/26 11:45:36.105,EU,EU
,,"49502",2021/05/21 12:18:00,2021/05/21 12:18:00+00,"6",DE,DEU,Deutschland,Nordrhein-Westfalen,Detmold,Lippe,Schlangen,sentinel,0,0,0,0,0,99.999999998,0,0,0,100,"0",2022/01/26 11:45:36.105,EU,EU
,,"49299",2021/05/10 11:36:00,2021/05/10 11:36:00+00,"3",DE,DEU,Deutschland,Sachsen-Anhalt,Sachsen-Anhalt,Altmarkkreis Salzwedel,"Gardelegen, Hansestadt",sentinel,0,0,0,0,0,99.999999995,0,0,0,100,"0",2022/01/26 11:45:36.105,EU,EU
,,"49185",2021/04/28 12:40:00,2021/04/28 12:48:00+00,"11",DE,DEU,Deutschland,Niedersachsen,Lüneburg,Heidekreis,"Osterheide, gemfr. Bezirk",sentinel,0,0,0,0,0,99.9999999990909,0,0,0,100,"0",2022/01/26 11:45:36.105,EU,EU
,,"49186",2021/04/28 11:12:00,2021/04/28 12:40:00+00,"33",DE,DEU,Deutschland,Niedersachsen,Lüneburg,Heidekreis,"Osterheide, gemfr. Bezirk",sentinel,0,0,3.12499999999023,0,0,96.8749999996973,0,0,0,100,"0",2022/01/26 11:45:36.105,EU,EU
,,"49187",2021/04/28 11:12:00,2021/04/28 12:40:00+00,"6",DE,DEU,Deutschland,Niedersachsen,Lüneburg,Heidekreis,"Osterheide, gemfr. Bezirk",sentinel,0,0,0,0,0,99.9999999983333,0,0,0,100,"0",2022/01/26 11:45:36.105,EU,EU
,,"49690",2021/05/31 12:34:00,2021/05/31 12:34:00+00,"1",DE,DEU,Deutschland,Sachsen-Anhalt,Sachsen-Anhalt,Stendal,Schollene,sentinel,0,0,0,0,0,99.99999999,0,0,0,100,"0",2022/01/26 11:45:36.105,EU,EU
,,"49733",2021/06/16 11:45:00,2021/06/16 11:45:00+00,"1",DE,DEU,Deutschland,Mecklenburg-Vorpommern,Mecklenburg-Vorpommern,Vorpommern-Greifswald,"Torgelow, Stadt",sentinel,,,,,,,,,,100,"0",2022/01/26 11:45:36.105,EU,EU
,,"49786",2021/06/19 00:07:00,2021/06/20 01:30:00+00,"3",DE,DEU,Deutschland,Mecklenburg-Vorpommern,Mecklenburg-Vorpommern,Ludwigslust-Parchim,Wöbbelin,sentinel,0,99.999999995,0,0,0,0,0,0,0,0,"0",2022/01/26 11:45:36.105,EU,EU
,,"54751",2021/08/12 00:00:00,2021/08/12 00:00:00+00,"1",DE,DEU,Deutschland,Sachsen-Anhalt,Sachsen-Anhalt,Stendal,Schollene,sentinel,0,0,0,0,0,99.99999999,0,0,0,100,"0",2022/01/26 11:45:36.105,EU,EU
,,"54748",2021/09/02 00:00:00,2021/09/02 00:00:00+00,"14",DE,DEU,Deutschland,Sachsen-Anhalt,Sachsen-Anhalt,Stendal,"Stendal, Hansestadt",sentinel,7.14285714280612,0,0,0,35.7142857140306,57.142857142449,0,0,0,100,"0",2022/01/26 11:45:36.105,EU,EU
,,"54749",2021/08/12 11:25:00,2021/08/12 11:25:00+00,"1",DE,DEU,Deutschland,Sachsen-Anhalt,Sachsen-Anhalt,Stendal,Schollene,sentinel,,,,,,,,,,100,"0",2022/01/26 11:45:36.105,EU,EU
,,"54750",2021/08/12 00:00:00,2021/08/12 00:00:00+00,"2",DE,DEU,Deutschland,Sachsen-Anhalt,Sachsen-Anhalt,Stendal,Schollene,sentinel,0,0,0,0,0,99.99999999,0,0,0,100,"0",2022/01/26 11:45:36.105,EU,EU
,,"54747",2021/09/02 11:32:00,2021/09/02 11:32:00+00,"4",DE,DEU,Deutschland,Sachsen-Anhalt,Sachsen-Anhalt,Altmarkkreis Salzwedel,"Gardelegen, Hansestadt",sentinel,0,0,0,0,0,99.999999998,0,0,0,100,"0",2022/01/26 11:45:36.105,EU,EU
,,"211027",2022/09/01 00:00:00,2022/09/01 00:00:00+00,"12",DE,DEU,Deutschland,Niedersachsen,Lüneburg,Heidekreis,"Osterheide, gemfr. Bezirk",sentinel,0,0,0,0,99.9999999992857,0,0,0,0,100,"0",2022/10/13 09:06:41.264,EU,EU
,,"204339",2022/06/17 00:54:00,2022/06/17 01:43:00+00,"1",DE,DEU,Deutschland,Sachsen-Anhalt,Sachsen-Anhalt,Harz,"Blankenburg (Harz), Stadt",sentinel,99.999999995,0,0,0,0,0,0,0,0,1.4156342689628,"0",2022/06/29 09:31:03.242,EU,EU
,,"181570",2022/02/28 12:16:00,2022/02/28 13:05:00+00,"64",DE,DEU,Deutschland,Bayern,Oberpfalz,Neustadt a. d. Waldnaab,"Grafenwöhr, St",sentinel,0,0,3.12499999999512,0,96.8749999998486,0,0,0,0,100,"0",2022/03/07 10:22:19.994,EU,EU
,,"181474",2022/02/28 10:34:00,2022/02/28 13:05:00+00,"105",DE,DEU,Deutschland,Bayern,Oberpfalz,Neustadt a. d. Waldnaab,"Grafenwöhr, St",sentinel,0,0.943396226414204,0.943396226414204,0,98.1132075470773,0,0,0,0,100,"0",2022/03/07 10:22:19.994,EU,EU
,,"181818",2022/03/08 12:16:00,2022/03/09 12:48:00+00,"59",DE,DEU,Deutschland,Sachsen-Anhalt,Sachsen-Anhalt,Börde,Burgstall,sentinel,0,0,0,0,43.6363636362843,56.3636363635339,0,0,0,100,"0",2022/03/11 14:42:05.827,EU,EU
,,"181716",2022/03/03 10:30:00,2022/03/03 12:10:00+00,"16",DE,DEU,Deutschland,Niedersachsen,Lüneburg,Heidekreis,"Osterheide, gemfr. Bezirk",sentinel,0,0,0,0,99.999999999375,0,0,0,0,100,"0",2022/03/10 10:05:49.151,EU,EU
,,"181717",2022/03/03 12:10:00,2022/03/03 12:10:00+00,"7",DE,DEU,Deutschland,Niedersachsen,Lüneburg,Heidekreis,"Osterheide, gemfr. Bezirk",sentinel,0,0,0,0,99.99999999875,0,0,0,0,97.4338783816504,"0",2022/03/10 10:06:19.907,EU,EU
,,"181780",2022/03/08 13:05:00,2022/03/08 13:05:00+00,"4",DE,DEU,Deutschland,Niedersachsen,Lüneburg,Heidekreis,"Osterheide, gemfr. Bezirk",sentinel,0,0,0,0,99.9999999975,0,0,0,0,100,"0",2022/03/10 11:39:35.053,EU,EU
,,"181813",2022/03/08 12:16:00,2022/03/09 12:48:00+00,"126",DE,DEU,Deutschland,Niedersachsen,Lüneburg,Heidekreis,"Munster, Stadt",sentinel,0,0,0,0,99.9999999999194,0,0,0,0,99.9999999999999,"0",2022/10/24 13:13:42.777,EU,EU
,,"181814",2022/03/02 12:27:00,2022/03/02 12:27:00+00,"34",DE,DEU,Deutschland,Niedersachsen,Lüneburg,Heidekreis,Wietzendorf,sentinel,0,0,0,0,99.9999999997143,0,0,0,0,100,"0",2022/03/11 14:32:05.793,EU,EU
,,"181815",2022/03/07 12:33:00,2022/03/07 12:33:00+00,"11",DE,DEU,Deutschland,Niedersachsen,Lüneburg,"Lüneburg, Landkreis",Rehlingen,sentinel,0,0,0,0,99.9999999990909,0,0,0,0,100,"0",2022/03/11 14:32:05.793,EU,EU
,,"181816",2022/03/07 10:53:00,2022/03/07 10:53:00+00,"11",DE,DEU,Deutschland,Niedersachsen,Lüneburg,Heidekreis,"Munster, Stadt",sentinel,0,0,0,0,99.9999999990909,0,0,0,0,99.9999999999999,"0",2022/03/11 14:32:05.793,EU,EU
,,"181817",2022/03/07 12:33:00,2022/03/07 12:33:00+00,"23",DE,DEU,Deutschland,Niedersachsen,Lüneburg,"Lüneburg, Landkreis",Rehlingen,sentinel,0,0,0,0,99.9999999995652,0,0,0,0,100,"0",2022/03/11 14:42:05.827,EU,EU
,,"181852",2022/03/09 11:55:00,2022/03/10 12:27:00+00,"68",DE,DEU,Deutschland,Brandenburg,Brandenburg,Ostprignitz-Ruppin,"Wittstock/Dosse, Stadt",sentinel,0,4.2253521126701,0,0,94.3661971829657,1.40845070422337,0,0,0,100,"0",2022/03/14 08:00:48.131,EU,EU
,,"181983",2022/03/12 00:00:00,2022/03/12 00:00:00+00,"20",DE,DEU,Deutschland,Niedersachsen,Lüneburg,Heidekreis,"Osterheide, gemfr. Bezirk",sentinel,0,0,0,0,99.9999999995,0,0,0,0,100,"0",2022/03/15 08:38:23.992,EU,EU
,,"203019",2022/05/23 11:55:00,2022/05/23 12:00:00+00,"3",DE,DEU,Deutschland,Mecklenburg-Vorpommern,Mecklenburg-Vorpommern,Vorpommern-Greifswald,"Eggesin, Stadt",sentinel,0,24.999999999375,0,0,74.999999998125,0,0,0,0,100,"0",2022/06/06 08:52:58.066,EU,EU
,,"203020",2022/05/23 11:55:00,2022/05/23 12:00:00+00,"5",DE,DEU,Deutschland,Mecklenburg-Vorpommern,Mecklenburg-Vorpommern,Vorpommern-Greifswald,"Eggesin, Stadt",sentinel,0,0,0,0,99.9999999985714,0,0,0,0,100,"0",2022/06/06 08:52:58.066,EU,EU
,,"203021",2022/05/23 10:44:56.936,2022/05/23 10:44:56.936+00,"21",DE,DEU,Deutschland,Mecklenburg-Vorpommern,Mecklenburg-Vorpommern,Vorpommern-Greifswald,"Torgelow, Stadt",sentinel,0,40.909090908905,0,0,59.0909090906405,0,0,0,0,100,"0",2022/06/06 08:52:58.066,EU,EU
,,"208611",2022/07/26 00:00:00,2022/07/26 00:00:00+00,"49",DE,DEU,Deutschland,Bayern,Oberpfalz,Neustadt a. d. Waldnaab,"Grafenwöhr, St",sentinel,0,27.999999999944,29.99999999994,0,41.999999999916,0,0,0,0,100,"0",2022/08/05 14:20:13.012,EU,EU
,,"208613",2022/07/26 00:00:00,2022/07/26 00:00:00+00,"9",DE,DEU,Deutschland,Bayern,Oberpfalz,Neustadt a. d. Waldnaab,"Grafenwöhr, St",sentinel,0,0,0,0,99.99999999875,0,0,0,0,100,"0",2022/08/05 14:20:43.155,EU,EU
,,"208614",2022/07/26 00:00:00,2022/07/26 00:00:00+00,"10",DE,DEU,Deutschland,Bayern,Oberpfalz,Neustadt a. d. Waldnaab,"Grafenwöhr, St",sentinel,0,0,0,0,99.9999999988889,0,0,0,0,100,"0",2022/08/05 14:21:17.943,EU,EU
,,"208615",2022/07/26 00:00:00,2022/07/26 00:00:00+00,"6",DE,DEU,Deutschland,Bayern,Oberpfalz,Neustadt a. d. Waldnaab,"Grafenwöhr, St",sentinel,0,19.9999999996,0,0,79.9999999984,0,0,0,0,100,"0",2022/08/05 14:21:45.353,EU,EU
,,"208616",2022/07/26 11:00:00,2022/07/26 11:00:00+00,"4",DE,DEU,Deutschland,Bayern,Oberpfalz,Neustadt a. d. Waldnaab,"Grafenwöhr, St",sentinel,0,0,0,0,99.9999999975,0,0,0,0,100,"0",2022/08/05 14:22:16.052,EU,EU
,,"203899",2022/06/17 12:21:00,2022/06/19 12:34:00+00,"146",DE,DEU,Deutschland,Brandenburg,Brandenburg,Potsdam-Mittelmark,"Treuenbrietzen, Stadt",sentinel,0.680272108843075,99.3197278910889,0,0,0,0,0,0,0,0,"0",2022/06/23 06:57:43.763,EU,EU
,,"183865",2022/03/22 12:02:00,2022/03/22 12:02:00+00,"9",DE,DEU,Deutschland,Baden-Württemberg,Tübingen,Sigmaringen,Stetten am kalten Markt,sentinel,0,0,0,0,99.99999999875,0,0,0,0,100,"0",2022/03/24 08:51:37.448,EU,EU
,,"183866",2022/03/08 13:05:00,2022/03/08 13:05:00+00,"14",DE,DEU,Deutschland,Baden-Württemberg,Tübingen,Zollernalbkreis,"Albstadt, Stadt",sentinel,0,0,0,0,99.9999999992308,0,0,0,0,100,"0",2022/03/24 08:52:06.192,EU,EU
,,"183860",2022/03/13 12:21:00,2022/03/13 12:21:00+00,"109",DE,DEU,Deutschland,Bayern,Oberpfalz,Neustadt a. d. Waldnaab,"Grafenwöhr, St",sentinel,0,0,0,0,99.9999999999057,0,0,0,0,100,"0",2022/03/24 08:47:05.468,EU,EU
,,"183863",2022/03/21 00:00:00,2022/03/21 00:00:00+00,"18",DE,DEU,Deutschland,Bayern,Oberpfalz,Neustadt a. d. Waldnaab,"Grafenwöhr, St",sentinel,0,10.5263157894183,0,0,89.4736842100554,0,0,0,0,100,"0",2022/03/24 08:48:55.758,EU,EU
,,"184266",2022/03/23 12:34:00,2022/03/24 12:17:00+00,"6",DE,DEU,Deutschland,Niedersachsen,Lüneburg,Uelzen,Wriedel,sentinel,0,0,0,0,99.9999999985714,0,0,0,0,100,"0",2022/03/25 08:35:42.822,EU,EU
,,"184238",2022/02/28 12:16:00,2022/03/01 12:46:00+00,"90",DE,DEU,Deutschland,Bayern,Oberpfalz,Neustadt a. d. Waldnaab,"Grafenwöhr, St",sentinel,0,3.22580645160943,0,0,96.774193548283,0,0,0,0,100,"0",2022/03/25 08:11:35.976,EU,EU
,,"184239",2022/03/21 17:11:26.981,2022/03/21 17:11:26.981+00,"40",DE,DEU,Deutschland,Bayern,Oberpfalz,Neustadt a. d. Waldnaab,"Grafenwöhr, St",sentinel,15.3846153845759,0,56.4102564101118,0,28.2051282050559,0,0,0,0,99.9999999999999,"0",2022/03/25 08:11:35.976,EU,EU
,,"184262",2022/03/21 17:35:32.120,2022/03/21 17:35:32.120+00,"31",DE,DEU,Deutschland,Niedersachsen,Lüneburg,Heidekreis,Wietzendorf,sentinel,0,0,0,0,99.9999999996774,0,0,0,0,100,"0",2022/03/25 08:35:42.822,EU,EU
,,"184263",2022/03/21 17:35:26.698,2022/03/21 17:35:36.674+00,"12",DE,DEU,Deutschland,Niedersachsen,Lüneburg,Heidekreis,Wietzendorf,sentinel,0,21.4285714284184,0,0,78.5714285708674,0,0,0,0,98.2196385348419,"0",2022/03/25 08:35:42.822,EU,EU
,,"184264",2022/03/12 11:00:00,2022/03/12 11:00:00+00,"26",DE,DEU,Deutschland,Niedersachsen,Lüneburg,Heidekreis,"Osterheide, gemfr. Bezirk",sentinel,0,0,0,0,99.9999999996296,0,0,0,0,100,"0",2022/03/25 08:35:42.822,EU,EU
,,"184265",2022/03/11 12:10:00,2022/03/11 12:10:00+00,"10",DE,DEU,Deutschland,Niedersachsen,Lüneburg,Heidekreis,"Munster, Stadt",sentinel,0,0,0,0,99.9999999988889,0,0,0,0,100,"0",2022/03/25 08:35:42.822,EU,EU
,,"184673",2022/03/22 12:04:00,2022/03/22 12:04:00+00,"22",DE,DEU,Deutschland,Niedersachsen,Lüneburg,Heidekreis,"Munster, Stadt",sentinel,0,0,0,0,99.9999999996154,0,0,0,0,100,"0",2022/03/28 08:05:09.884,EU,EU
,,"184674",2022/03/23 11:45:00,2022/03/24 12:17:00+00,"13",DE,DEU,Deutschland,Niedersachsen,Lüneburg,Heidekreis,Wietzendorf,sentinel,0,0,0,0,99.9999999992857,0,0,0,0,95.1890696384431,"0",2022/03/28 08:05:49.405,EU,EU
,,"208965",2022/08/04 10:43:00,2022/08/04 12:21:00+00,"30",DE,DEU,Deutschland,Sachsen-Anhalt,Sachsen-Anhalt,Jerichower Land,"Möckern, Stadt",sentinel,0,0,0,0,99.9999999996667,0,0,0,0,100,"0",2022/10/28 13:46:24.358,EU,EU
,,"201938",2022/04/23 11:13:00,2022/04/23 11:13:00+00,"2",DE,DEU,Deutschland,Sachsen-Anhalt,Sachsen-Anhalt,Jerichower Land,"Möckern, Stadt",sentinel,0,0,0,0,0,99.999999995,0,0,0,0,"0",2022/05/16 09:22:49.860,EU,EU
,,"201939",2022/05/09 10:24:00,2022/05/09 12:04:00+00,"6",DE,DEU,Deutschland,Niedersachsen,Lüneburg,Heidekreis,Wietzendorf,sentinel,0,0,0,0,99.999999998,0,0,0,0,100,"0",2022/05/16 09:22:49.860,EU,EU
,,"201940",2022/05/09 09:55:00,2022/05/09 12:04:00+00,"3",DE,DEU,Deutschland,Niedersachsen,Lüneburg,Heidekreis,Wietzendorf,sentinel,0,0,0,0,99.999999995,0,0,0,0,99.9999999999999,"0",2022/05/16 09:22:49.860,EU,EU
,,"202433",2022/05/17 11:10:00,2022/05/17 12:04:00+00,"7",DE,DEU,Deutschland,Mecklenburg-Vorpommern,Mecklenburg-Vorpommern,Vorpommern-Greifswald,"Eggesin, Stadt",sentinel,0,0,0,0,99.9999999983333,0,0,0,0,100,"0",2022/05/19 11:53:42.630,EU,EU
,,"202434",2022/05/17 11:10:00,2022/05/17 12:04:00+00,"6",DE,DEU,Deutschland,Mecklenburg-Vorpommern,Mecklenburg-Vorpommern,Vorpommern-Greifswald,"Eggesin, Stadt",sentinel,0,0,0,0,99.999999998,0,0,0,0,100,"0",2022/05/19 11:53:42.630,EU,EU
,,"192423",2022/03/22 09:55:00,2022/03/23 11:45:00+00,"18",DE,DEU,Deutschland,Niedersachsen,Lüneburg,Heidekreis,"Osterheide, gemfr. Bezirk",sentinel,0,0,0,0,99.9999999994737,0,0,0,0,100,"0",2022/04/01 09:03:08.232,EU,EU
,,"192424",2022/03/23 11:45:00,2022/03/23 11:45:00+00,"3",DE,DEU,Deutschland,Niedersachsen,Lüneburg,Celle,"Osterheide, gemfr. Bezirk",sentinel,0,0,0,0,99.9999999966667,0,0,0,0,99.9596230166999,"0",2022/04/01 09:03:08.232,EU,EU
,,"192425",2022/03/22 00:00:00,2022/03/22 00:00:00+00,"3",DE,DEU,Deutschland,Niedersachsen,Lüneburg,Heidekreis,"Osterheide, gemfr. Bezirk",sentinel,0,0,0,0,99.9999999966667,0,0,0,0,100,"0",2022/04/01 09:03:08.232,EU,EU
,,"181781",2022/03/07 12:33:00,2022/03/07 12:33:00+00,"34",DE,DEU,Deutschland,Niedersachsen,Lüneburg,Heidekreis,Wietzendorf,sentinel,0,0,0,0,99.999999999697,0,0,0,0,100,"0",2022/04/01 08:53:35.773,EU,EU
,,"192417",2022/03/07 00:00:00,2022/03/07 00:00:00+00,"1",DE,DEU,Deutschland,Niedersachsen,Lüneburg,Heidekreis,Wietzendorf,sentinel,0,0,0,0,99.99999999,0,0,0,0,100,"0",2022/04/01 08:54:59.560,EU,EU
,,"192418",2022/03/07 00:00:00,2022/03/07 00:00:00+00,"5",DE,DEU,Deutschland,Niedersachsen,Lüneburg,Heidekreis,Wietzendorf,sentinel,0,0,0,0,99.9999999975,0,0,0,0,100,"0",2022/04/01 08:55:30.848,EU,EU
,,"192426",2022/03/22 00:00:00,2022/03/22 00:00:00+00,"3",DE,DEU,Deutschland,Niedersachsen,Lüneburg,Heidekreis,"Osterheide, gemfr. Bezirk",sentinel,0,0,0,0,99.9999999966667,0,0,0,0,100,"0",2022/04/01 09:03:44.658,EU,EU
,,"192427",2022/03/22 00:00:00,2022/03/22 00:00:00+00,"2",DE,DEU,Deutschland,Niedersachsen,Lüneburg,Heidekreis,"Osterheide, gemfr. Bezirk",sentinel,0,0,0,0,99.9999999966667,0,0,0,0,100,"0",2022/04/01 09:04:09.278,EU,EU
,,"192429",2022/03/22 00:00:00,2022/03/22 00:00:00+00,"14",DE,DEU,Deutschland,Niedersachsen,Lüneburg,Heidekreis,"Osterheide, gemfr. Bezirk",sentinel,0,0,0,0,99.9999999993333,0,0,0,0,100,"0",2022/04/01 09:06:00.973,EU,EU
,,"192430",2022/03/23 00:00:00,2022/03/23 00:00:00+00,"29",DE,DEU,Deutschland,Niedersachsen,Lüneburg,Celle,"Lohheide, gemfr. Bezirk",sentinel,0,0,0,0,99.9999999996296,0,0,0,0,100,"0",2022/04/01 09:06:53.525,EU,EU
,,"202448",2022/05/12 10:25:00,2022/05/14 10:30:00+00,"83",DE,DEU,Deutschland,Niedersachsen,Weser-Ems,Emsland,Stavern,sentinel,0,0,0,0,99.9999999998823,0,0,0,0,99.4056436950672,"0",2022/05/19 12:04:06.823,EU,EU
,,"201942",2022/03/22 00:00:00,2022/03/22 00:00:00+00,"12",DE,DEU,Deutschland,Niedersachsen,Lüneburg,Heidekreis,Wietzendorf,sentinel,0,0,0,0,99.9999999991667,0,0,0,0,100,"0",2022/05/16 09:22:49.860,EU,EU
,,"193251",2022/03/26 10:47:00,2022/03/26 10:47:00+00,"1",DE,DEU,Deutschland,Bayern,Oberpfalz,Neustadt a. d. Waldnaab,"Grafenwöhr, St",sentinel,0,33.3333333322222,0,0,66.6666666644444,0,0,0,0,100,"0",2022/04/05 14:33:29.396,EU,EU
,,"210792",2022/09/02 10:49:00,2022/09/02 10:49:00+00,"4",DE,DEU,Deutschland,Niedersachsen,Lüneburg,Heidekreis,"Munster, Stadt",sentinel,0,0,0,0,99.999999998,0,0,0,0,100,"0",2022/09/26 13:30:28.689,EU,EU
,,"202886",2022/05/19 10:34:00,2022/05/19 10:34:00+00,"5",DE,DEU,Deutschland,Sachsen,Dresden,Görlitz,Krauschwitz,sentinel,0,0,0,0,99.999999998,0,0,0,0,100,"0",2022/06/01 10:08:22.548,EU,EU
,,"204000",2022/06/23 12:59:00,2022/06/23 12:59:00+00,"1",DE,DEU,Deutschland,Sachsen-Anhalt,Sachsen-Anhalt,Stendal,Klietz,sentinel,0,0,0,0,99.99999999,0,0,0,0,100,"0",2022/06/27 10:35:37.364,EU,EU
,,"207252",2022/07/19 11:32:00,2022/07/19 12:21:00+00,"3",DE,DEU,Deutschland,Nordrhein-Westfalen,Arnsberg,Hochsauerlandkreis,"Sundern (Sauerland), Stadt",sentinel,0,0,0,0,0,99.999999995,0,0,0,0,"0",2022/07/29 09:11:30.410,EU,EU
,,"206459",2022/07/20 10:24:00,2022/07/21 01:56:00+00,"28",DE,DEU,Deutschland,Sachsen-Anhalt,Sachsen-Anhalt,Börde,Calvörde,sentinel,0,93.3333333330222,0,0,0,0,6.66666666664445,0,0,0,"0",2022/07/29 09:17:14.850,EU,EU
,,"203923",2022/06/22 11:38:00,2022/06/22 11:38:00+00,"1",DE,DEU,Deutschland,Niedersachsen,Lüneburg,Heidekreis,"Osterheide, gemfr. Bezirk",sentinel,,,,,,,,,,100,"0",2022/06/24 08:34:34.718,EU,EU
,,"203846",2022/06/19 11:34:00,2022/06/19 21:01:00+00,"220",DE,DEU,Deutschland,Brandenburg,Brandenburg,Potsdam-Mittelmark,"Beelitz, Stadt",sentinel,0,99.999999999955,0,0,0,0,0,0,0,0,"0",2022/06/28 06:54:23.348,EU,EU
,,"203932",2022/06/23 20:36:00,2022/06/27 12:34:00+00,"911",DE,DEU,Deutschland,Brandenburg,Brandenburg,Elbe-Elster,"Mühlberg/Elbe, Stadt",sentinel,15.4867256637151,34.6238938053059,3.98230088495531,0,0.995575221238828,40.5973451327389,4.31415929203492,0,0,85.1606894119652,"0",2022/07/21 11:45:02.826,EU,EU
,,"204341",2022/06/19 12:34:00,2022/06/19 12:34:00+00,"2",DE,DEU,Deutschland,Sachsen,Dresden,Görlitz,Hähnichen,sentinel,0,99.9999999966667,0,0,0,0,0,0,0,0,"0",2022/06/29 09:31:03.242,EU,EU
,,"204849",2022/07/04 11:10:00,2022/07/06 13:06:00+00,"78",DE,DEU,Deutschland,Brandenburg,Brandenburg,Dahme-Spreewald,Schwielochsee,sentinel,0,72.3684210525364,0,0,27.6315789473321,0,0,0,0,100,"0",2022/07/13 13:29:56.504,EU,EU
,,"210107",2022/09/01 10:24:00,2022/09/01 11:08:00+00,"11",DE,DEU,Deutschland,Niedersachsen,Lüneburg,Celle,"Lohheide, gemfr. Bezirk",sentinel,0,0,0,0,99.9999999990909,0,0,0,0,100,"0",2022/09/02 08:58:57.439,EU,EU
,,"210108",2022/08/29 12:04:00,2022/09/01 12:46:00+00,"3",DE,DEU,Deutschland,Niedersachsen,Lüneburg,Celle,"Lohheide, gemfr. Bezirk",sentinel,0,0,0,0,99.9999999975,0,0,0,0,100,"0",2022/09/02 08:58:57.439,EU,EU
,,"206453",2022/06/30 00:58:00,2022/06/30 01:49:00+00,"27",DE,DEU,Deutschland,Niedersachsen,Lüneburg,Heidekreis,Wietzendorf,sentinel,0,35.999999999856,0,0,63.999999999744,0,0,0,0,57.1907014793279,"0",2022/07/21 11:33:50.020,EU,EU
,,"206454",2022/07/12 00:00:00,2022/07/12 00:00:00+00,"11",DE,DEU,Deutschland,Niedersachsen,Lüneburg,Heidekreis,Wietzendorf,sentinel,0,9.09090909082645,0,0,90.9090909082645,0,0,0,0,100,"0",2022/07/21 11:40:38.482,EU,EU
,,"206455",2022/07/12 00:00:00,2022/07/12 00:00:00+00,"7",DE,DEU,Deutschland,Niedersachsen,Lüneburg,Heidekreis,Wietzendorf,sentinel,0,0,0,0,99.9999999983333,0,0,0,0,100,"0",2022/07/21 11:41:05.486,EU,EU
,,"206456",2022/07/12 00:00:00,2022/07/12 00:00:00+00,"18",DE,DEU,Deutschland,Niedersachsen,Lüneburg,Heidekreis,"Munster, Stadt",sentinel,0,0,0,0,99.9999999994737,0,0,0,0,100,"0",2022/07/21 11:41:43.629,EU,EU
,,"206457",2022/07/12 13:14:00,2022/07/12 13:14:00+00,"15",DE,DEU,Deutschland,Niedersachsen,Lüneburg,Heidekreis,"Munster, Stadt",sentinel,0,0,0,0,99.9999999993333,0,0,0,0,100,"0",2022/07/21 11:42:07.483,EU,EU
,,"206458",2022/07/12 11:13:00,2022/07/12 12:55:00+00,"6",DE,DEU,Deutschland,Sachsen-Anhalt,Sachsen-Anhalt,Jerichower Land,"Möckern, Stadt",sentinel,0,0,0,0,99.9999999983333,0,0,0,0,100,"0",2022/07/21 11:46:47.280,EU,EU
,,"210136",2022/09/02 12:29:00,2022/09/03 01:30:00+00,"8",DE,DEU,Deutschland,Niedersachsen,Lüneburg,Heidekreis,"Osterheide, gemfr. Bezirk",sentinel,0,0,0,0,99.99999999875,0,0,0,0,100,"0",2022/09/26 12:28:18.507,EU,EU
,,"210139",2022/08/30 11:47:00,2022/08/30 11:47:00+00,"7",DE,DEU,Deutschland,Niedersachsen,Lüneburg,Heidekreis,"Osterheide, gemfr. Bezirk",sentinel,0,0,0,0,99.9999999985714,0,0,0,0,100,"0",2022/09/04 09:20:25.499,EU,EU
,,"210140",2022/08/30 00:00:00,2022/08/30 00:00:00+00,"3",DE,DEU,Deutschland,Niedersachsen,Lüneburg,Heidekreis,"Osterheide, gemfr. Bezirk",sentinel,0,0,0,0,99.999999995,0,0,0,0,100,"0",2022/09/04 09:20:49.575,EU,EU
,,"206619",2022/07/19 11:32:00,2022/07/20 02:13:00+00,"19",DE,DEU,Deutschland,Sachsen,Dresden,Meißen,"Radeburg, Stadt",sentinel,0,99.9999999994737,0,0,0,0,0,0,0,5.4064643928718,"0",2022/07/22 14:02:58.806,EU,EU
,,"206620",2022/07/11 16:02:49.648,2022/07/11 16:02:49.648+00,"8",DE,DEU,Deutschland,Sachsen,Dresden,Görlitz,Krauschwitz,sentinel,0,0,0,0,99.99999999875,0,0,0,0,100,"0",2022/07/22 14:02:58.806,EU,EU
,,"206621",2022/07/11 16:02:34.394,2022/07/11 16:02:38.743+00,"3",DE,DEU,Deutschland,Sachsen,Dresden,Görlitz,Krauschwitz,sentinel,0,0,0,0,99.9999999966667,0,0,0,0,100,"0",2022/07/22 14:02:58.806,EU,EU
,,"206622",2022/06/22 16:04:04.403,2022/06/22 16:04:07.938+00,"22",DE,DEU,Deutschland,Sachsen-Anhalt,Sachsen-Anhalt,Börde,Burgstall,sentinel,0,0,0,0,99.9999999995652,0,0,0,0,100,"0",2022/07/22 14:04:13.244,EU,EU
,,"206858",2022/07/25 12:10:00,2022/07/28 11:34:00+00,"405",DE,DEU,Deutschland,Sachsen,Leipzig,Nordsachsen,Arzberg,sentinel,0,82.0197044334773,6.89655172413623,0,1.23152709359576,8.86699507388944,0.985221674876605,0,0,0,"0",2022/08/05 09:06:08.334,EU,EU
,,"210779",2022/09/02 12:29:00,2022/09/03 01:30:00+00,"6",DE,DEU,Deutschland,Niedersachsen,Lüneburg,Heidekreis,"Osterheide, gemfr. Bezirk",sentinel,0,0,0,0,99.9999999985714,0,0,0,0,4.88978458933176,"0",2022/09/26 12:28:18.934,EU,EU
,,"208705",2022/08/05 12:02:00,2022/08/05 12:19:00+00,"85",DE,DEU,Deutschland,Bayern,Oberpfalz,Neustadt a. d. Waldnaab,"Grafenwöhr, St",sentinel,0,1.19047619047477,1.19047619047477,0,97.6190476189314,0,0,0,0,100,"0",2022/08/08 08:30:02.601,EU,EU
,,"208706",2022/08/05 12:02:00,2022/08/05 12:02:00+00,"41",DE,DEU,Deutschland,Bayern,Oberpfalz,Neustadt a. d. Waldnaab,"Grafenwöhr, St",sentinel,0,2.49999999999375,0,0,97.4999999997563,0,0,0,0,100,"0",2022/08/08 08:31:34.710,EU,EU
,,"208708",2022/08/03 11:00:00,2022/08/03 11:00:00+00,"9",DE,DEU,Deutschland,Sachsen-Anhalt,Sachsen-Anhalt,Stendal,Klietz,sentinel,0,0,0,0,99.99999999875,0,0,0,0,100,"0",2022/08/08 08:34:13.319,EU,EU
,,"208709",2022/08/03 11:00:00,2022/08/03 11:00:00+00,"16",DE,DEU,Deutschland,Sachsen-Anhalt,Sachsen-Anhalt,Stendal,Klietz,sentinel,0,0,0,0,99.9999999994118,0,0,0,0,100,"0",2022/08/08 08:34:13.319,EU,EU
,,"208788",2022/07/25 20:34:00,2022/07/28 01:24:00+00,"31",DE,DEU,Deutschland,Sachsen,Dresden,Sächsische Schweiz-Osterzgebirge,"Bad Schandau, Stadt",sentinel,0,89.655172413484,10.3448275861712,0,0,0,0,0,0,100,"0",2022/08/08 13:27:08.971,EU,EU
,,"208963",2022/08/05 00:00:00,2022/08/05 00:00:00+00,"65",DE,DEU,Deutschland,Rheinland-Pfalz,Koblenz,Birkenfeld,"Baumholder, Stadt",sentinel,0,0,0,0,69.5652173912035,30.4347826086515,0,0,0,100,"0",2022/08/10 11:48:15.134,EU,EU
,,"208964",2022/08/05 00:00:00,2022/08/05 00:00:00+00,"15",DE,DEU,Deutschland,Rheinland-Pfalz,Rheinhessen-Pfalz,Kusel,Homberg,sentinel,6.24999999996094,0,0,0,93.7499999994141,0,0,0,0,100,"0",2022/08/10 11:48:39.594,EU,EU
,,"208966",2022/08/08 09:37:00,2022/08/08 12:49:00+00,"108",DE,DEU,Deutschland,Sachsen-Anhalt,Sachsen-Anhalt,Jerichower Land,"Möckern, Stadt",sentinel,0.917431192659709,0,0,0,99.0825688072485,0,0,0,0,100,"0",2022/08/10 11:52:31.490,EU,EU
,,"208980",2022/08/09 10:19:00,2022/08/10 12:08:00+00,"89",DE,DEU,Deutschland,Rheinland-Pfalz,Koblenz,Birkenfeld,"Baumholder, Stadt",sentinel,29.88505747123,0,0,0,70.114942528655,0,0,0,0,100,"0",2022/08/11 06:38:44.446,EU,EU
,,"209002",2022/07/25 10:30:00,2022/07/25 10:30:00+00,"22",DE,DEU,Deutschland,Brandenburg,Brandenburg,Oberhavel,Schönermark,sentinel,0,28.5714285712925,0,0,0,0,71.4285714282313,0,0,0,"0",2022/08/11 09:25:56.533,EU,EU
,,"209091",2022/08/10 12:08:00,2022/08/10 12:36:00+00,"16",DE,DEU,Deutschland,Rheinland-Pfalz,Koblenz,Birkenfeld,"Baumholder, Stadt",sentinel,24.9999999998438,0,0,0,12.4999999999219,62.4999999996094,0,0,0,100,"0",2022/08/14 10:59:26.985,EU,EU
,,"209092",2022/08/10 11:02:00,2022/08/10 12:08:00+00,"30",DE,DEU,Deutschland,Rheinland-Pfalz,Koblenz,Birkenfeld,"Baumholder, Stadt",sentinel,0,0,0,0,21.4285714284949,78.571428571148,0,0,0,100,"0",2022/08/14 11:00:35.759,EU,EU
,,"209093",2022/08/04 02:32:00,2022/08/04 12:21:00+00,"32",DE,DEU,Deutschland,Berlin,Berlin,Berlin,"Berlin, Stadt",sentinel,0,90.3225806448699,9.67741935480749,0,0,0,0,0,0,52.5758796734059,"0",2022/08/14 11:03:23.892,EU,EU
,,"209094",2022/08/10 11:02:00,2022/08/10 11:02:00+00,"7",DE,DEU,Deutschland,Sachsen-Anhalt,Sachsen-Anhalt,Altmarkkreis Salzwedel,"Gardelegen, Hansestadt",sentinel,0,0,0,0,99.99999999875,0,0,0,0,100,"0",2022/08/14 11:04:28.699,EU,EU
,,"208707",2022/08/02 10:13:00,2022/08/02 11:19:00+00,"37",DE,DEU,Deutschland,Sachsen-Anhalt,Sachsen-Anhalt,Altmarkkreis Salzwedel,"Gardelegen, Hansestadt",sentinel,0,0,0,0,99.9999999997222,0,0,0,0,100,"0",2022/08/14 11:04:49.462,EU,EU
,,"209095",2022/08/10 11:00:00,2022/08/10 11:00:00+00,"5",DE,DEU,Deutschland,Sachsen-Anhalt,Sachsen-Anhalt,Altmarkkreis Salzwedel,"Gardelegen, Hansestadt",sentinel,0,0,0,0,99.999999998,0,0,0,0,100,"0",2022/08/14 11:05:09.767,EU,EU
,,"209103",2022/07/24 00:09:00,2022/07/24 01:00:00+00,"2",DE,DEU,Deutschland,Bayern,Niederbayern,Regen,Bischofsmais,sentinel,0,0,0,0,0,0,99.99999999,0,0,0,"0",2022/08/14 11:48:47.376,EU,EU
,,"209251",2022/07/20 11:13:00,2022/07/20 12:02:00+00,"3",DE,DEU,Deutschland,Brandenburg,Brandenburg,Oder-Spree,Bad Saarow,sentinel,0,99.9999999975,0,0,0,0,0,0,0,0,"0",2022/08/17 10:50:17.985,EU,EU
,,"210376",2022/09/03 12:59:00,2022/09/04 02:51:00+00,"11",DE,DEU,Deutschland,Sachsen-Anhalt,Sachsen-Anhalt,Harz,"Wernigerode, Stadt",sentinel,0,74.999999999375,0,0,0,24.9999999997917,0,0,0,100,"0",2022/09/14 09:15:33.655,EU,EU
,,"209577",2022/08/13 01:24:00,2022/08/13 03:04:00+00,"17",DE,DEU,Deutschland,Hessen,Gießen,Lahn-Dill-Kreis,"Haiger, Stadt",sentinel,0,68.7499999995703,0,0,0,31.2499999998047,0,0,0,100,"0",2022/08/23 12:44:15.607,EU,EU
,,"210541",2022/09/03 12:10:00,2022/09/03 12:59:00+00,"3",DE,DEU,Deutschland,Sachsen-Anhalt,Sachsen-Anhalt,Mansfeld-Südharz,Südharz,sentinel,74.999999998125,24.999999999375,0,0,0,0,0,0,0,100,"0",2022/09/19 07:20:35.919,EU,EU
,,"183864",2022/03/21 00:00:00,2022/03/21 00:00:00+00,"11",DE,DEU,Deutschland,Bayern,Oberpfalz,Neustadt a. d. Waldnaab,"Grafenwöhr, St",sentinel,0,0,0,0,99.9999999991667,0,0,0,0,100,"0",2022/10/20 12:25:43.384,EU,EU
,,"210872",2022/09/09 00:28:00,2022/09/11 00:39:00+00,"7",DE,DEU,Deutschland,Brandenburg,Brandenburg,Ostprignitz-Ruppin,"Neuruppin, Stadt",sentinel,0,85.7142857130612,0,0,0,0,14.2857142855102,0,0,0,"0",2022/09/29 09:59:13.133,EU,EU
,,"206680",2022/07/20 12:02:00,2022/07/20 12:02:00+00,"2",DE,DEU,Deutschland,Bayern,Oberpfalz,Neustadt a. d. Waldnaab,"Grafenwöhr, St",sentinel,0,0,0,0,99.999999995,0,0,0,0,100,"0",2022/10/20 12:25:43.384,EU,EU
,,"184237",2022/03/13 12:21:00,2022/03/23 12:34:00+00,"810",DE,DEU,Deutschland,Bayern,Oberpfalz,Neustadt a. d. Waldnaab,"Grafenwöhr, St",sentinel,5.65110565110496,0.614250614250539,7.00245700245614,0,86.7321867321761,0,0,0,0,100,"0",2022/10/20 12:36:47.889,EU,EU
,,"206679",2022/07/20 11:10:00,2022/07/20 12:02:00+00,"12",DE,DEU,Deutschland,Bayern,Oberpfalz,Neustadt a. d. Waldnaab,"Grafenwöhr, St",sentinel,0,0,0,0,99.9999999990909,0,0,0,0,100,"0",2022/10/20 12:36:47.889,EU,EU
,,"184261",2022/03/22 10:24:00,2022/03/22 12:53:00+00,"76",DE,DEU,Deutschland,Niedersachsen,Lüneburg,Heidekreis,"Munster, Stadt",sentinel,0,0,0,0,99.9999999998684,0,0,0,0,100,"0",2022/10/24 13:13:42.777,EU,EU
,,"192416",2022/03/07 00:00:00,2022/03/07 00:00:00+00,"15",DE,DEU,Deutschland,Niedersachsen,Lüneburg,Heidekreis,Wietzendorf,sentinel,0,0,0,0,99.9999999994118,0,0,0,0,100,"0",2022/10/27 13:52:12.468,EU,EU
,,"201941",2022/05/09 09:55:00,2022/05/09 12:04:00+00,"2",DE,DEU,Deutschland,Niedersachsen,Lüneburg,Heidekreis,Wietzendorf,sentinel,0,0,0,0,99.9999999966667,0,0,0,0,100,"0",2022/10/27 13:52:12.468,EU,EU
,,"203976",2022/06/22 10:19:00,2022/06/22 13:18:00+00,"59",DE,DEU,Deutschland,Sachsen-Anhalt,Sachsen-Anhalt,Jerichower Land,"Möckern, Stadt",sentinel,0,0,0,0,99.9999999998246,0,0,0,0,100,"0",2022/10/28 13:46:24.358,EU,EU
,,"209252",2022/08/11 02:02:00,2022/08/11 02:02:00+00,"23",DE,DEU,Deutschland,Hessen,Darmstadt,Darmstadt-Dieburg,Münster,sentinel,0,91.999999999632,0,0,0,7.999999999968,0,0,0,0,"0",2023/02/21 15:30:45.676,EU,EU
,,"208787",2022/07/25 20:34:00,2022/07/25 20:34:00+00,"148",DE,DEU,Deutschland,Sachsen,Dresden,Sächsische Schweiz-Osterzgebirge,"Bad Schandau, Stadt",sentinel,1.36986301369769,94.5205479451407,4.10958904109308,0,0,0,0,0,0,100,"0",2023/02/22 17:25:46.123,EU,EU
,,"216562",2023/06/09 12:27:00,2023/06/09 13:21:00+00,"8",DE,DEU,Deutschland,Brandenburg,Brandenburg,Teltow-Fläming,"Jüterbog, Stadt",sentinel,0,0,0,0,37.4999999995313,62.4999999992187,0,0,0,100,"0",2023/06/12 07:55:12.858,EU,EU
,,"216563",2023/06/01 01:00:00,2023/06/08 11:57:00+00,"616",DE,DEU,Deutschland,Brandenburg,Brandenburg,Teltow-Fläming,"Jüterbog, Stadt",sentinel,36.9951534733381,27.4636510500763,9.04684975767221,0,4.84652665589582,21.6478190630013,0,0,0,99.9999999999999,"0",2023/06/12 07:55:12.858,EU,EU
,,"216130",2023/05/03 12:21:00,2023/05/03 12:21:00+00,"5",DE,DEU,Deutschland,Niedersachsen,Lüneburg,"Lüneburg, Landkreis",Rehlingen,sentinel,0,0,0,0,99.999999998,0,0,0,0,100,"0",2023/05/05 07:02:04.491,EU,EU
,,"216131",2023/05/03 12:21:00,2023/05/03 12:21:00+00,"3",DE,DEU,Deutschland,Niedersachsen,Lüneburg,"Lüneburg, Landkreis",Rehlingen,sentinel,0,0,0,0,99.9999999966667,0,0,0,0,100,"0",2023/05/05 07:02:41.608,EU,EU
,,"216132",2023/05/03 12:21:00,2023/05/03 12:21:00+00,"4",DE,DEU,Deutschland,Niedersachsen,Lüneburg,"Lüneburg, Landkreis",Rehlingen,sentinel,0,0,0,0,99.9999999966667,0,0,0,0,100,"0",2023/05/05 07:02:41.608,EU,EU
,,"217107",2023/06/13 11:13:00,2023/06/13 12:04:00+00,"2",DE,DEU,Deutschland,Brandenburg,Brandenburg,Havelland,Milower Land,sentinel,0,0,0,0,99.9999999966667,0,0,0,0,100,"0",2023/07/17 08:55:05.407,EU,EU
,,"216364",2023/05/17 11:19:00,2023/05/17 12:59:00+00,"21",DE,DEU,Deutschland,Sachsen-Anhalt,Sachsen-Anhalt,Altmarkkreis Salzwedel,"Gardelegen, Hansestadt",sentinel,0,0,0,0,99.9999999995,0,0,0,0,100,"0",2023/05/24 08:35:02.720,EU,EU
,,"216365",2023/05/17 11:19:00,2023/05/17 12:12:00+00,"2",DE,DEU,Deutschland,Sachsen-Anhalt,Sachsen-Anhalt,Altmarkkreis Salzwedel,"Gardelegen, Hansestadt",sentinel,0,0,0,0,99.999999995,0,0,0,0,100,"0",2023/05/24 08:35:02.720,EU,EU
,,"216536",2023/06/06 12:36:00,2023/06/06 12:36:00+00,"7",DE,DEU,Deutschland,Niedersachsen,Lüneburg,Heidekreis,Wietzendorf,sentinel,0,14.2857142855102,0,0,85.7142857130612,0,0,0,0,100,"0",2023/06/09 07:27:09.759,EU,EU
,,"216537",2023/06/06 12:36:00,2023/06/06 12:36:00+00,"6",DE,DEU,Deutschland,Niedersachsen,Lüneburg,Heidekreis,Wietzendorf,sentinel,0,16.6666666663889,0,0,83.3333333319444,0,0,0,0,100,"0",2023/06/09 07:27:09.759,EU,EU
,,"216538",2023/06/01 12:29:00,2023/06/01 12:29:00+00,"4",DE,DEU,Deutschland,Sachsen-Anhalt,Sachsen-Anhalt,Altmarkkreis Salzwedel,"Gardelegen, Hansestadt",sentinel,0,0,0,0,99.9999999966667,0,0,0,0,100,"0",2023/06/09 07:27:50.249,EU,EU
,,"216170",2023/04/22 11:40:00,2023/04/22 11:40:00+00,"2",DE,DEU,Deutschland,Niedersachsen,Lüneburg,Heidekreis,"Osterheide, gemfr. Bezirk",sentinel,0,0,0,0,99.99999999,0,0,0,0,100,"0",2023/05/10 09:34:20.311,EU,EU
,,"216171",2023/05/03 12:21:00,2023/05/03 12:21:00+00,"2",DE,DEU,Deutschland,Niedersachsen,Lüneburg,Heidekreis,"Munster, Stadt",sentinel,0,0,0,0,99.999999995,0,0,0,0,100,"0",2023/05/10 09:34:20.311,EU,EU
,,"216172",2023/05/03 12:21:00,2023/05/03 12:21:00+00,"1",DE,DEU,Deutschland,Niedersachsen,Lüneburg,Heidekreis,"Munster, Stadt",sentinel,0,0,0,0,99.99999999,0,0,0,0,100,"0",2023/05/10 09:34:20.311,EU,EU
,,"216355",2023/05/09 11:08:00,2023/05/09 11:21:00+00,"5",DE,DEU,Deutschland,Niedersachsen,Lüneburg,"Lüneburg, Landkreis",Wendisch Evern,sentinel,0,0,0,0,99.999999998,0,0,0,0,0,"0",2023/05/23 07:49:05.939,EU,EU
,,"216363",2023/05/17 10:04:00,2023/05/17 10:32:00+00,"5",DE,DEU,Deutschland,Sachsen-Anhalt,Sachsen-Anhalt,Altmarkkreis Salzwedel,"Gardelegen, Hansestadt",sentinel,0,0,0,0,99.9999999985714,0,0,0,0,100,"0",2023/05/24 08:35:02.720,EU,EU
,,"216637",2023/06/13 01:24:00,2023/06/13 02:15:00+00,"1",DE,DEU,Deutschland,Mecklenburg-Vorpommern,Mecklenburg-Vorpommern,Ludwigslust-Parchim,Greven,sentinel,,,,,,,,,,0,"0",2023/06/15 08:36:26.279,EU,EU
,,"216617",2023/06/12 13:14:00,2023/06/13 02:15:00+00,"8",DE,DEU,Deutschland,Mecklenburg-Vorpommern,Mecklenburg-Vorpommern,Ludwigslust-Parchim,"Hagenow, Stadt",sentinel,0,66.6666666659259,33.333333332963,0,0,0,0,0,0,100,"0",2023/06/15 08:36:26.279,EU,EU
,,"216472",2023/05/17 00:00:00,2023/05/17 00:00:00+00,"29",DE,DEU,Deutschland,Sachsen-Anhalt,Sachsen-Anhalt,Altmarkkreis Salzwedel,"Gardelegen, Hansestadt",sentinel,0,0,0,0,99.9999999996154,0,0,0,0,100,"0",2023/06/06 07:18:04.653,EU,EU
,,"216473",2023/05/17 00:00:00,2023/05/17 00:00:00+00,"3",DE,DEU,Deutschland,Sachsen-Anhalt,Sachsen-Anhalt,Altmarkkreis Salzwedel,"Gardelegen, Hansestadt",sentinel,0,0,0,0,99.999999995,0,0,0,0,100,"0",2023/06/06 07:18:32.317,EU,EU
,,"216475",2023/06/01 10:26:00,2023/06/01 10:26:00+00,"15",DE,DEU,Deutschland,Sachsen-Anhalt,Sachsen-Anhalt,Stendal,Klietz,sentinel,0,0,0,0,99.9999999994118,0,0,0,0,100,"0",2023/06/06 07:27:42.302,EU,EU
,,"216639",2023/06/12 12:21:00,2023/06/13 01:26:00+00,"3",DE,DEU,Deutschland,Hessen,Darmstadt,Hochtaunuskreis,"Kronberg im Taunus, Stadt",sentinel,0,99.99999999,0,0,0,0,0,0,0,100,"0",2023/06/15 14:35:35.459,EU,EU
,,"216534",2023/06/06 10:06:00,2023/06/08 12:46:00+00,"32",DE,DEU,Deutschland,Mecklenburg-Vorpommern,Mecklenburg-Vorpommern,Landkreis Rostock,Dummerstorf,sentinel,0,0,82.3529411762284,0,17.6470588234775,0,0,0,0,0,"0",2023/06/09 08:34:22.013,EU,EU
,,"216603",2023/06/12 12:23:00,2023/06/13 12:53:00+00,"103",DE,DEU,Deutschland,Mecklenburg-Vorpommern,Mecklenburg-Vorpommern,Ludwigslust-Parchim,"Lübtheen, Stadt",sentinel,0,99.9999999999038,0,0,0,0,0,0,0,100,"0",2023/06/19 08:28:04.069,EU,EU
,,"216724",2023/06/13 00:35:00,2023/06/13 02:15:00+00,"2",DE,DEU,Deutschland,Brandenburg,Brandenburg,Ostprignitz-Ruppin,"Rheinsberg, Stadt",sentinel,0,99.999999995,0,0,0,0,0,0,0,100,"0",2023/06/20 08:39:02.124,EU,EU
,,"216968",2023/06/27 11:02:00,2023/06/27 11:51:00+00,"100",DE,DEU,Deutschland,Sachsen,Dresden,Meißen,Zeithain,sentinel,0,0,2.88461538461261,0,97.1153846152912,0,0,0,0,100,"0",2023/07/11 08:25:57.988,EU,EU
,,"217019",2023/07/08 11:45:00,2023/07/08 11:45:00+00,"49",DE,DEU,Deutschland,Bayern,Oberpfalz,Neustadt a. d. Waldnaab,"Grafenwöhr, St",sentinel,0,2.12765957446356,0,0,97.8723404253237,0,0,0,0,100,"0",2023/07/12 09:02:58.581,EU,EU
,,"217046",2023/07/11 12:29:00,2023/07/11 12:29:00+00,"7",DE,DEU,Deutschland,Mecklenburg-Vorpommern,Mecklenburg-Vorpommern,Vorpommern-Greifswald,"Eggesin, Stadt",sentinel,0,0,0,0,99.999999998,0,0,0,0,99.9999999999999,"0",2023/07/13 08:31:09.403,EU,EU
,,"217047",2023/07/11 12:29:00,2023/07/11 12:29:00+00,"5",DE,DEU,Deutschland,Mecklenburg-Vorpommern,Mecklenburg-Vorpommern,Vorpommern-Greifswald,"Eggesin, Stadt",sentinel,0,0,0,0,99.999999998,0,0,0,0,100,"0",2023/07/13 08:31:09.403,EU,EU
,,"217174",2023/07/10 01:20:00,2023/07/11 01:52:00+00,"6",DE,DEU,Deutschland,Hessen,Darmstadt,Wetteraukreis,"Butzbach, Friedrich-Ludwig-Weidig-Stadt",sentinel,0,99.9999999985714,0,0,0,0,0,0,0,0,"0",2023/07/18 07:44:27.081,EU,EU
,,"217231",2023/07/15 12:04:00,2023/07/15 12:04:00+00,"1",DE,DEU,Deutschland,Sachsen-Anhalt,Sachsen-Anhalt,Wittenberg,"Gräfenhainichen, Stadt",sentinel,0,99.99999999,0,0,0,0,0,0,0,0,"0",2023/07/19 08:54:37.622,EU,EU
,,"217481",2023/07/17 11:25:00,2023/07/17 12:17:00+00,"5",DE,DEU,Deutschland,Brandenburg,Brandenburg,Dahme-Spreewald,Halbe,sentinel,0,99.9999999983333,0,0,0,0,0,0,0,0,"0",2023/07/25 09:59:59.870,EU,EU
,,"218337",2023/07/08 00:16:00,2023/07/08 01:56:00+00,"0",DE,DEU,Deutschland,Niedersachsen,Braunschweig,Göttingen,"Bad Sachsa, Stadt",sentinel,0,99.99999999,0,0,0,0,0,0,0,0,"0",2023/08/08 18:13:14.809,EU,EU
,,"218547",2023/07/08 00:00:00,2023/07/08 00:00:00+00,"20",DE,DEU,Deutschland,Bayern,Oberpfalz,Neustadt a. d. Waldnaab,"Grafenwöhr, St",sentinel,0,0,14.999999999925,0,84.999999999575,0,0,0,0,100,"0",2023/08/14 10:00:05.276,EU,EU
,,"220320",2023/09/07 12:42:00,2023/09/07 13:12:00+00,"34",DE,DEU,Deutschland,Sachsen-Anhalt,Sachsen-Anhalt,Jerichower Land,"Möckern, Stadt",sentinel,0,0,0,0,99.9999999997059,0,0,0,0,99.9999999999999,"0",2023/09/12 08:26:30.067,EU,EU
,,"219312",2023/08/23 12:21:00,2023/08/23 12:34:00+00,"14",DE,DEU,Deutschland,Sachsen-Anhalt,Sachsen-Anhalt,Stendal,Schollene,sentinel,0,0,0,0,99.9999999992857,0,0,0,0,100,"0",2023/08/28 12:52:47.428,EU,EU
,,"220398",2023/09/06 11:19:00,2023/09/06 13:01:00+00,"16",DE,DEU,Deutschland,Mecklenburg-Vorpommern,Mecklenburg-Vorpommern,Ludwigslust-Parchim,Ganzlin,sentinel,0,87.4999999994531,0,0,0,0,12.4999999999219,0,0,100,"0",2023/09/13 07:49:59.317,EU,EU
,,"222474",2023/09/28 11:57:00,2023/09/28 13:04:00+00,"41",DE,DEU,Deutschland,Sachsen-Anhalt,Sachsen-Anhalt,Stendal,Klietz,sentinel,0,0,0,0,99.9999999997436,0,0,0,0,100,"0",2023/10/10 11:53:12.217,EU,EU
,,"222210",2023/09/24 00:03:00,2023/09/24 01:43:00+00,"7",DE,DEU,Deutschland,Sachsen-Anhalt,Sachsen-Anhalt,Saalekreis,"Leuna, Stadt",sentinel,0,0,0,0,0,99.99999999875,0,0,0,0,"0",2023/10/06 07:05:25.187,EU,EU
,,"226531",2024/03/06 11:57:00,2024/03/06 12:48:00+00,"10",DE,DEU,Deutschland,Sachsen-Anhalt,Sachsen-Anhalt,Altmarkkreis Salzwedel,"Gardelegen, Hansestadt",sentinel,99.9999999990909,0,0,0,0,0,0,0,0,100,"0",2024/03/07 10:23:51.580,EU,EU
,,"226662",2024/02/29 11:19:00,2024/02/29 13:03:00+00,"147",DE,DEU,Deutschland,Thüringen,Thüringen,Gotha,Wölfis,sentinel,0,0,0,0,99.9999999999315,0,0,0,0,100,"0",2024/03/11 07:40:34.706,EU,EU
,,"226681",2024/03/04 11:44:00,2024/03/04 11:44:00+00,"23",DE,DEU,Deutschland,Bayern,Oberpfalz,Neustadt a. d. Waldnaab,"Grafenwöhr, St",sentinel,0,0,0,0,99.9999999995833,0,0,0,0,100,"0",2024/03/11 09:06:00.004,EU,EU
,,"226682",2024/03/09 11:51:00,2024/03/09 11:51:00+00,"2",DE,DEU,Deutschland,Bayern,Oberpfalz,Neustadt a. d. Waldnaab,"Grafenwöhr, St",sentinel,0,0,0,0,99.999999995,0,0,0,0,100,"0",2024/03/11 09:07:07.321,EU,EU
,,"226683",2024/03/09 11:51:00,2024/03/09 11:51:00+00,"15",DE,DEU,Deutschland,Bayern,Oberpfalz,Neustadt a. d. Waldnaab,"Grafenwöhr, St",sentinel,0,0,0,0,99.9999999993333,0,0,0,0,100,"0",2024/03/11 09:08:11.639,EU,EU
,,"227545",2024/03/08 12:01:00,2024/03/08 12:01:00+00,"75",DE,DEU,Deutschland,Brandenburg,Brandenburg,Ostprignitz-Ruppin,"Wittstock/Dosse, Stadt",sentinel,0,0,0,0,94.7368421051385,5.26315789472992,0,0,0,100,"0",2024/03/27 13:56:07.207,EU,EU
,,"227546",2024/03/08 12:01:00,2024/03/08 12:01:00+00,"58",DE,DEU,Deutschland,Brandenburg,Brandenburg,Ostprignitz-Ruppin,"Wittstock/Dosse, Stadt",sentinel,0,0,0,0,65.5172413791974,34.4827586206302,0,0,0,100,"0",2024/03/27 13:56:40.676,EU,EU
,,"227547",2024/03/09 11:51:00,2024/03/09 11:51:00+00,"18",DE,DEU,Deutschland,Brandenburg,Brandenburg,Ostprignitz-Ruppin,"Wittstock/Dosse, Stadt",sentinel,0,0,0,0,99.9999999994445,0,0,0,0,100,"0",2024/03/27 13:57:16.167,EU,EU
,,"227548",2024/03/09 11:51:00,2024/03/09 11:51:00+00,"16",DE,DEU,Deutschland,Brandenburg,Brandenburg,Ostprignitz-Ruppin,"Wittstock/Dosse, Stadt",sentinel,0,99.9999999993333,0,0,0,0,0,0,0,100,"0",2024/03/27 13:57:35.522,EU,EU
,,"229950",2024/04/30 11:25:00,2024/04/30 11:25:00+00,"2",DE,DEU,Deutschland,Sachsen,Dresden,Görlitz,Krauschwitz,sentinel,0,0,0,0,99.999999995,0,0,0,0,100,"0",2024/05/03 11:54:14.081,EU,EU
,,"230261",2024/04/30 11:25:00,2024/04/30 11:25:00+00,"2",DE,DEU,Deutschland,Sachsen,Dresden,Görlitz,Krauschwitz,sentinel,0,24.999999999375,0,0,74.999999998125,0,0,0,0,100,"0",2024/05/15 09:23:23.839,EU,EU
,,"230848",2024/05/02 10:49:00,2024/05/02 12:29:00+00,"11",DE,DEU,Deutschland,Mecklenburg-Vorpommern,Mecklenburg-Vorpommern,Vorpommern-Greifswald,"Eggesin, Stadt",sentinel,0,18.1818181816529,0,0,81.818181817438,0,0,0,0,100,"0",2024/05/29 15:16:04.083,EU,EU
,,"231288",2024/05/16 08:45:00,2024/05/16 08:45:00+00,"4",DE,DEU,Deutschland,Sachsen-Anhalt,Sachsen-Anhalt,Stendal,Schollene,sentinel,0,0,0,0,99.9999999975,0,0,0,0,100,"0",2024/06/10 14:05:49.300,EU,EU
,,"231289",2024/06/07 11:13:00,2024/06/07 11:38:00+00,"11",DE,DEU,Deutschland,Mecklenburg-Vorpommern,Mecklenburg-Vorpommern,Vorpommern-Greifswald,"Eggesin, Stadt",sentinel,0,0,0,0,99.9999999988889,0,0,0,0,100,"0",2024/06/10 14:11:05.919,EU,EU
,,"231290",2024/06/07 11:13:00,2024/06/08 09:28:00+00,"5",DE,DEU,Deutschland,Mecklenburg-Vorpommern,Mecklenburg-Vorpommern,Vorpommern-Greifswald,"Eggesin, Stadt",sentinel,0,0,0,0,99.9999999975,0,0,0,0,100,"0",2024/06/10 14:12:28.234,EU,EU
,,"231291",2024/06/07 11:13:00,2024/06/07 11:38:00+00,"2",DE,DEU,Deutschland,Mecklenburg-Vorpommern,Mecklenburg-Vorpommern,Vorpommern-Greifswald,"Eggesin, Stadt",sentinel,0,0,0,0,99.999999995,0,0,0,0,100,"0",2024/06/10 14:13:24.924,EU,EU
